     2              NAVIGATION DATA                         RINEX VERSION / TYPE
CCRINEXN V1.6.0 UX  CDDIS               28-SEP-23 23:31     PGM / RUN BY / DATE 
IGS BROADCAST EPHEMERIS FILE                                COMMENT             
    0.2515D-07  0.2235D-07 -0.1192D-06 -0.1192D-06          ION ALPHA           
    0.1331D+06  0.0000D+00 -0.2621D+06  0.2621D+06          ION BETA            
    0.465661287308D-08 0.150990331349D-13   405504     2281 DELTA-UTC: A0,A1,T,W
    18                                                      LEAP SECONDS        
                                                            END OF HEADER       
32 23  9 27  0  0  0.0-0.564112327993D-03-0.579802872380D-11 0.000000000000D+00
    0.430000000000D+02-0.137687500000D+03 0.449768734673D-08-0.300619075225D+00
   -0.706128776074D-05 0.700118998066D-02 0.998005270958D-05 0.515358461761D+04
    0.259200000000D+06 0.167638063431D-07 0.220723071360D+01 0.115483999252D-06
    0.960374405277D+00 0.189812500000D+03-0.222433298520D+01-0.822891419588D-08
   -0.227509476683D-09 0.100000000000D+01 0.228100000000D+04 0.000000000000D+00
    0.200000000000D+01 0.000000000000D+00 0.465661287308D-09 0.430000000000D+02
    0.252018000000D+06 0.400000000000D+01 0.000000000000D+00 0.000000000000D+00
15 23  9 27  1 59 44.0 0.814180821180D-04 0.363797880709D-11 0.000000000000D+00
    0.210000000000D+02-0.113625000000D+03 0.513592821774D-08-0.954326842378D+00
   -0.561401247978D-05 0.154504148522D-01 0.733695924282D-05 0.515378553581D+04
    0.266384000000D+06-0.968575477600D-07 0.207192474896D+01 0.303611159325D-06
    0.933211113543D+00 0.223218750000D+03 0.124879341959D+01-0.869357640807D-08
   -0.251081887140D-09 0.100000000000D+01 0.228100000000D+04 0.000000000000D+00
    0.200000000000D+01 0.000000000000D+00-0.107102096081D-07 0.210000000000D+02
    0.263706000000D+06 0.400000000000D+01 0.000000000000D+00 0.000000000000D+00
21 23  9 27  1 59 44.0 0.148072838783D-03-0.795807864051D-12 0.000000000000D+00
    0.200000000000D+01 0.988437500000D+02 0.438375402952D-08 0.906739754265D-01
    0.496394932270D-05 0.247977202525D-01 0.112466514111D-04 0.515357251358D+04
    0.266384000000D+06 0.173225998878D-06 0.340510947991D-01-0.370666384697D-06
    0.962206735041D+00 0.172031250000D+03-0.701485578821D+00-0.841142179805D-08
    0.796461747257D-10 0.100000000000D+01 0.228100000000D+04 0.000000000000D+00
    0.200000000000D+01 0.000000000000D+00-0.102445483208D-07 0.200000000000D+01
    0.263706000000D+06 0.400000000000D+01 0.000000000000D+00 0.000000000000D+00
 1 23  9 27  2  0  0.0 0.164632219821D-03-0.682121026330D-12 0.000000000000D+00
    0.660000000000D+02 0.126062500000D+03 0.357122018423D-08-0.207867508016D+01
    0.652112066746D-05 0.128728223499D-01 0.106357038021D-04 0.515363957787D+04
    0.266400000000D+06 0.167638063431D-06 0.141021486088D+00-0.137835741043D-06
    0.990663015217D+00 0.191187500000D+03 0.993048974624D+00-0.750209820679D-08
    0.335013954676D-09 0.100000000000D+01 0.228100000000D+04 0.000000000000D+00
    0.200000000000D+01 0.630000000000D+02 0.512227416039D-08 0.660000000000D+02
    0.259218000000D+06 0.400000000000D+01 0.000000000000D+00 0.000000000000D+00
 2 23  9 27  2  0  0.0-0.549167394638D-03 0.454747350886D-11 0.000000000000D+00
    0.121000000000D+03 0.103937500000D+03 0.416195907659D-08 0.596032564200D+00
    0.533461570740D-05 0.160014969297D-01 0.118073076010D-04 0.515375135231D+04
    0.266400000000D+06-0.104308128357D-06 0.397923636145D-01-0.206753611565D-06
    0.967921539669D+00 0.164218750000D+03-0.134051269533D+01-0.819141263379D-08
    0.546451333320D-10 0.100000000000D+01 0.228100000000D+04 0.000000000000D+00
    0.200000000000D+01 0.000000000000D+00-0.176951289177D-07 0.121000000000D+03
    0.259218000000D+06 0.400000000000D+01 0.000000000000D+00 0.000000000000D+00
 3 23  9 27  2  0  0.0-0.112922396511D-03 0.214868123294D-10 0.000000000000D+00
    0.140000000000D+02 0.575000000000D+01 0.438482550272D-08 0.299925003837D+01
    0.366941094399D-06 0.511359120719D-02 0.104121863842D-05 0.515358893585D+04
    0.266400000000D+06-0.931322574616D-08 0.117034197404D+01 0.279396772385D-07
    0.980435829533D+00 0.367750000000D+03 0.111573348186D+01-0.834320467082D-08
    0.914323799542D-10 0.100000000000D+01 0.228100000000D+04 0.000000000000D+00
    0.200000000000D+01 0.000000000000D+00 0.186264514923D-08 0.140000000000D+02
    0.259218000000D+06 0.400000000000D+01 0.000000000000D+00 0.000000000000D+00
 4 23  9 27  2  0  0.0 0.167720019817D-03 0.110276232590D-10 0.000000000000D+00
    0.410000000000D+02-0.137625000000D+03 0.423589072757D-08-0.249782840206D+00
   -0.705011188984D-05 0.258668232709D-02 0.976398587227D-05 0.515362937164D+04
    0.266400000000D+06 0.875443220139D-07 0.225115342599D+01 0.223517417908D-07
    0.963470412456D+00 0.191000000000D+03-0.304882195522D+01-0.808676541767D-08
   -0.260367988229D-09 0.100000000000D+01 0.228100000000D+04 0.000000000000D+00
    0.200000000000D+01 0.000000000000D+00-0.419095158577D-08 0.553000000000D+03
    0.259218000000D+06 0.400000000000D+01 0.000000000000D+00 0.000000000000D+00
 5 23  9 27  2  0  0.0-0.144264660776D-03-0.147792889038D-11 0.000000000000D+00
    0.111000000000D+03 0.124062500000D+02 0.460447750926D-08 0.416241968640D+00
    0.821426510811D-06 0.601650832687D-02 0.189058482647D-05 0.515373266602D+04
    0.266400000000D+06-0.108033418655D-06 0.112215746675D+01-0.931322574616D-08
    0.967472985579D+00 0.347781250000D+03 0.123286376168D+01-0.853464121635D-08
    0.807176479283D-10 0.100000000000D+01 0.228100000000D+04 0.000000000000D+00
    0.200000000000D+01 0.000000000000D+00-0.111758708954D-07 0.111000000000D+03
    0.264942000000D+06 0.400000000000D+01 0.000000000000D+00 0.000000000000D+00
 6 23  9 27  2  0  0.0 0.542670954019D-03-0.750333128963D-11 0.000000000000D+00
    0.112000000000D+03 0.101562500000D+03 0.372765527181D-08-0.186520086311D+01
    0.525638461113D-05 0.278458395041D-02 0.105202198029D-04 0.515374912453D+04
    0.266400000000D+06-0.689178705216D-07 0.132685808131D+00 0.000000000000D+00
    0.989830259340D+00 0.192531250000D+03-0.812585460155D+00-0.773067915667D-08
    0.205365697163D-09 0.100000000000D+01 0.228100000000D+04 0.000000000000D+00
    0.200000000000D+01 0.000000000000D+00 0.372529029846D-08 0.112000000000D+03
    0.259218000000D+06 0.400000000000D+01 0.000000000000D+00 0.000000000000D+00
 7 23  9 27  2  0  0.0 0.562188215554D-04-0.104591890704D-10 0.000000000000D+00
    0.880000000000D+02 0.260000000000D+02 0.456769026263D-08-0.278123866429D+01
    0.104308128357D-05 0.175701581175D-01 0.121314078569D-04 0.515372424698D+04
    0.266400000000D+06 0.270083546638D-06-0.301807986408D+01-0.262632966042D-06
    0.950817710060D+00 0.138093750000D+03-0.217201079114D+01-0.774246536190D-08
    0.711101048784D-09 0.100000000000D+01 0.228100000000D+04 0.000000000000D+00
    0.200000000000D+01 0.000000000000D+00-0.111758708954D-07 0.880000000000D+02
    0.259218000000D+06 0.400000000000D+01 0.000000000000D+00 0.000000000000D+00
 8 23  9 27  2  0  0.0-0.144247896969D-03-0.181898940355D-11 0.000000000000D+00
    0.240000000000D+02-0.359687500000D+02 0.472483966568D-08 0.653163093493D-01
   -0.197440385818D-05 0.866956135724D-02 0.103190541267D-04 0.515375564575D+04
    0.266400000000D+06 0.912696123123D-07-0.954167457453D+00 0.279396772385D-07
    0.956724850379D+00 0.175531250000D+03 0.269660023097D+00-0.822034241026D-08
   -0.809319425688D-09 0.100000000000D+01 0.228100000000D+04 0.000000000000D+00
    0.200000000000D+01 0.000000000000D+00 0.512227416039D-08 0.240000000000D+02
    0.262428000000D+06 0.400000000000D+01 0.000000000000D+00 0.000000000000D+00
 9 23  9 27  2  0  0.0-0.487221404910D-04 0.104591890704D-10 0.000000000000D+00
    0.140000000000D+03-0.142687500000D+03 0.439232581514D-08 0.609316157332D+00
   -0.741519033909D-05 0.288344488945D-02 0.887364149094D-05 0.515381016350D+04
    0.266400000000D+06 0.614672899246D-07 0.219349611745D+01-0.596046447754D-07
    0.956806476819D+00 0.204562500000D+03 0.195916648907D+01-0.819962726167D-08
   -0.309655755548D-09 0.100000000000D+01 0.228100000000D+04 0.000000000000D+00
    0.200000000000D+01 0.000000000000D+00 0.931322574616D-09 0.140000000000D+03
    0.259218000000D+06 0.400000000000D+01 0.000000000000D+00 0.000000000000D+00
10 23  9 27  2  0  0.0-0.550076365471D-04-0.159161572810D-11 0.000000000000D+00
    0.700000000000D+01 0.375000000000D+00 0.442625579989D-08 0.210832101409D+01
   -0.521540641785D-07 0.885173783172D-02 0.158697366715D-05 0.515368393707D+04
    0.266400000000D+06-0.229105353355D-06 0.116772944665D+01-0.143423676491D-06
    0.980147897997D+00 0.359875000000D+03-0.244303169963D+01-0.839356391134D-08
    0.603596570791D-10 0.100000000000D+01 0.228100000000D+04 0.000000000000D+00
    0.200000000000D+01 0.000000000000D+00 0.232830643654D-08 0.700000000000D+01
    0.259218000000D+06 0.400000000000D+01 0.000000000000D+00 0.000000000000D+00
11 23  9 27  2  0  0.0-0.388000626117D-03-0.179625203600D-10 0.000000000000D+00
    0.177000000000D+03 0.104843750000D+03 0.423267630796D-08-0.543960872920D+00
    0.534020364284D-05 0.117825262714D-02 0.957399606705D-05 0.515360531425D+04
    0.266400000000D+06 0.335276126862D-07 0.171191460686D+00 0.223517417908D-07
    0.966126745457D+00 0.200781250000D+03-0.273548140581D+01-0.800640492747D-08
    0.167506977338D-09 0.100000000000D+01 0.228100000000D+04 0.000000000000D+00
    0.200000000000D+01 0.000000000000D+00-0.838190317154D-08 0.945000000000D+03
    0.259218000000D+06 0.400000000000D+01 0.000000000000D+00 0.000000000000D+00
